CCSDS_OMM_VERS = 2.0
CREATION_DATE  = 
ORIGINATOR     = 

OBJECT_NAME    = KUIPER-00124
OBJECT_ID      = 2025-228G
CENTER_NAME    = EARTH
REF_FRAME      = TEME
TIME_SYSTEM    = UTC
MEAN_ELEMENT_THEORY = SGP/SGP4

EPOCH          = 2025-11-07T20:00:02.870784
MEAN_MOTION    = 15.34443835
ECCENTRICITY   = .0005241
INCLINATION    = 51.8780
RA_OF_ASC_NODE = 188.8482
ARG_OF_PERICENTER = 248.0330
MEAN_ANOMALY   = 112.0098

EPHEMERIS_TYPE = 0
CLASSIFICATION_TYPE = U
NORAD_CAT_ID   = 65953
ELEMENT_SET_NO = 999
REV_AT_EPOCH   = 505
BSTAR          = .84567E-3
MEAN_MOTION_DOT = .28379E-3
MEAN_MOTION_DDOT = 0

CCSDS_OMM_VERS = 2.0
CREATION_DATE  = 
ORIGINATOR     = 

OBJECT_NAME    = KUIPER-00125
OBJECT_ID      = 2025-228H
CENTER_NAME    = EARTH
REF_FRAME      = TEME
TIME_SYSTEM    = UTC
MEAN_ELEMENT_THEORY = SGP/SGP4

EPOCH          = 2025-11-07T22:57:51.706080
MEAN_MOTION    = 15.34879633
ECCENTRICITY   = .0005421
INCLINATION    = 51.8775
RA_OF_ASC_NODE = 188.1719
ARG_OF_PERICENTER = 229.0254
MEAN_ANOMALY   = 131.0263

EPHEMERIS_TYPE = 0
CLASSIFICATION_TYPE = U
NORAD_CAT_ID   = 65954
ELEMENT_SET_NO = 999
REV_AT_EPOCH   = 507
BSTAR          = .99765E-3
MEAN_MOTION_DOT = .34046E-3
MEAN_MOTION_DDOT = 0

CCSDS_OMM_VERS = 2.0
CREATION_DATE  = 
ORIGINATOR     = 

OBJECT_NAME    = KUIPER-00126
OBJECT_ID      = 2025-228J
CENTER_NAME    = EARTH
REF_FRAME      = TEME
TIME_SYSTEM    = UTC
MEAN_ELEMENT_THEORY = SGP/SGP4

EPOCH          = 2025-11-08T04:00:01.998720
MEAN_MOTION    = 15.31959182
ECCENTRICITY   = .0006689
INCLINATION    = 51.8779
RA_OF_ASC_NODE = 187.2410
ARG_OF_PERICENTER = 249.7441
MEAN_ANOMALY   = 148.4674

EPHEMERIS_TYPE = 0
CLASSIFICATION_TYPE = U
NORAD_CAT_ID   = 65955
ELEMENT_SET_NO = 999
REV_AT_EPOCH   = 453
BSTAR          = -.46942E-1
MEAN_MOTION_DOT = -.1342338E-1
MEAN_MOTION_DDOT = 0

CCSDS_OMM_VERS = 2.0
CREATION_DATE  = 
ORIGINATOR     = 

OBJECT_NAME    = KUIPER-00127
OBJECT_ID      = 2025-228K
CENTER_NAME    = EARTH
REF_FRAME      = TEME
TIME_SYSTEM    = UTC
MEAN_ELEMENT_THEORY = SGP/SGP4

EPOCH          = 2025-11-07T22:50:23.843040
MEAN_MOTION    = 15.35194549
ECCENTRICITY   = .0005771
INCLINATION    = 51.8781
RA_OF_ASC_NODE = 188.1425
ARG_OF_PERICENTER = 220.4976
MEAN_ANOMALY   = 139.5581

EPHEMERIS_TYPE = 0
CLASSIFICATION_TYPE = U
NORAD_CAT_ID   = 65956
ELEMENT_SET_NO = 999
REV_AT_EPOCH   = 507
BSTAR          = .91811E-3
MEAN_MOTION_DOT = .31611E-3
MEAN_MOTION_DDOT = 0

CCSDS_OMM_VERS = 2.0
CREATION_DATE  = 
ORIGINATOR     = 

OBJECT_NAME    = KUIPER-00128
OBJECT_ID      = 2025-228L
CENTER_NAME    = EARTH
REF_FRAME      = TEME
TIME_SYSTEM    = UTC
MEAN_ELEMENT_THEORY = SGP/SGP4

EPOCH          = 2025-11-07T22:55:30.889632
MEAN_MOTION    = 15.34923548
ECCENTRICITY   = .0005821
INCLINATION    = 51.8779
RA_OF_ASC_NODE = 188.1687
ARG_OF_PERICENTER = 222.3662
MEAN_ANOMALY   = 137.6875

EPHEMERIS_TYPE = 0
CLASSIFICATION_TYPE = U
NORAD_CAT_ID   = 65957
ELEMENT_SET_NO = 999
REV_AT_EPOCH   = 507
BSTAR          = .21829E-3
MEAN_MOTION_DOT = .7134E-4
MEAN_MOTION_DDOT = 0

CCSDS_OMM_VERS = 2.0
CREATION_DATE  = 
ORIGINATOR     = 

OBJECT_NAME    = KUIPER-00129
OBJECT_ID      = 2025-228M
CENTER_NAME    = EARTH
REF_FRAME      = TEME
TIME_SYSTEM    = UTC
MEAN_ELEMENT_THEORY = SGP/SGP4

EPOCH          = 2025-11-07T08:51:02.102112
MEAN_MOTION    = 15.34958626
ECCENTRICITY   = .0005756
INCLINATION    = 51.8777
RA_OF_ASC_NODE = 190.9873
ARG_OF_PERICENTER = 219.8142
MEAN_ANOMALY   = 140.2422

EPHEMERIS_TYPE = 0
CLASSIFICATION_TYPE = U
NORAD_CAT_ID   = 65958
ELEMENT_SET_NO = 999
REV_AT_EPOCH   = 498
BSTAR          = .18479E-2
MEAN_MOTION_DOT = .63802E-3
MEAN_MOTION_DDOT = 0

CCSDS_OMM_VERS = 2.0
CREATION_DATE  = 
ORIGINATOR     = 

OBJECT_NAME    = KUIPER-00130
OBJECT_ID      = 2025-228N
CENTER_NAME    = EARTH
REF_FRAME      = TEME
TIME_SYSTEM    = UTC
MEAN_ELEMENT_THEORY = SGP/SGP4

EPOCH          = 2025-11-07T23:00:02.663424
MEAN_MOTION    = 15.34750216
ECCENTRICITY   = .0005246
INCLINATION    = 51.8776
RA_OF_ASC_NODE = 188.1820
ARG_OF_PERICENTER = 234.6900
MEAN_ANOMALY   = 125.3596

EPHEMERIS_TYPE = 0
CLASSIFICATION_TYPE = U
NORAD_CAT_ID   = 65959
ELEMENT_SET_NO = 999
REV_AT_EPOCH   = 507
BSTAR          = .63002E-3
MEAN_MOTION_DOT = .21233E-3
MEAN_MOTION_DDOT = 0

CCSDS_OMM_VERS = 2.0
CREATION_DATE  = 
ORIGINATOR     = 

OBJECT_NAME    = KUIPER-00134
OBJECT_ID      = 2025-228P
CENTER_NAME    = EARTH
REF_FRAME      = TEME
TIME_SYSTEM    = UTC
MEAN_ELEMENT_THEORY = SGP/SGP4

EPOCH          = 2025-11-07T23:02:25.819584
MEAN_MOTION    = 15.34689141
ECCENTRICITY   = .0004947
INCLINATION    = 51.8773
RA_OF_ASC_NODE = 188.1915
ARG_OF_PERICENTER = 240.0165
MEAN_ANOMALY   = 120.0329

EPHEMERIS_TYPE = 0
CLASSIFICATION_TYPE = U
NORAD_CAT_ID   = 65960
ELEMENT_SET_NO = 999
REV_AT_EPOCH   = 507
BSTAR          = .56541E-3
MEAN_MOTION_DOT = .18972E-3
MEAN_MOTION_DDOT = 0

CCSDS_OMM_VERS = 2.0
CREATION_DATE  = 
ORIGINATOR     = 

OBJECT_NAME    = KUIPER-00135
OBJECT_ID      = 2025-228Q
CENTER_NAME    = EARTH
REF_FRAME      = TEME
TIME_SYSTEM    = UTC
MEAN_ELEMENT_THEORY = SGP/SGP4

EPOCH          = 2025-11-07T23:01:58.982880
MEAN_MOTION    = 15.34671064
ECCENTRICITY   = .000493
INCLINATION    = 51.8784
RA_OF_ASC_NODE = 188.1990
ARG_OF_PERICENTER = 226.6037
MEAN_ANOMALY   = 133.4539

EPHEMERIS_TYPE = 0
CLASSIFICATION_TYPE = U
NORAD_CAT_ID   = 65961
ELEMENT_SET_NO = 999
REV_AT_EPOCH   = 507
BSTAR          = .58129E-3
MEAN_MOTION_DOT = .19506E-3
MEAN_MOTION_DDOT = 0

CCSDS_OMM_VERS = 2.0
CREATION_DATE  = 
ORIGINATOR     = 

OBJECT_NAME    = KUIPER-00136
OBJECT_ID      = 2025-228R
CENTER_NAME    = EARTH
REF_FRAME      = TEME
TIME_SYSTEM    = UTC
MEAN_ELEMENT_THEORY = SGP/SGP4

EPOCH          = 2025-11-07T22:52:24.911040
MEAN_MOTION    = 15.34995293
ECCENTRICITY   = .0005688
INCLINATION    = 51.8780
RA_OF_ASC_NODE = 188.1532
ARG_OF_PERICENTER = 219.4718
MEAN_ANOMALY   = 140.5853

EPHEMERIS_TYPE = 0
CLASSIFICATION_TYPE = U
NORAD_CAT_ID   = 65962
ELEMENT_SET_NO = 999
REV_AT_EPOCH   = 507
BSTAR          = .59608E-3
MEAN_MOTION_DOT = .20226E-3
MEAN_MOTION_DDOT = 0

CCSDS_OMM_VERS = 2.0
CREATION_DATE  = 
ORIGINATOR     = 

OBJECT_NAME    = KUIPER-00137
OBJECT_ID      = 2025-228S
CENTER_NAME    = EARTH
REF_FRAME      = TEME
TIME_SYSTEM    = UTC
MEAN_ELEMENT_THEORY = SGP/SGP4

EPOCH          = 2025-11-07T23:00:56.128608
MEAN_MOTION    = 15.34656976
ECCENTRICITY   = .0004994
INCLINATION    = 51.8787
RA_OF_ASC_NODE = 188.1941
ARG_OF_PERICENTER = 235.7637
MEAN_ANOMALY   = 124.2876

EPHEMERIS_TYPE = 0
CLASSIFICATION_TYPE = U
NORAD_CAT_ID   = 65963
ELEMENT_SET_NO = 999
REV_AT_EPOCH   = 507
BSTAR          = .83819E-3
MEAN_MOTION_DOT = .28316E-3
MEAN_MOTION_DDOT = 0

CCSDS_OMM_VERS = 2.0
CREATION_DATE  = 
ORIGINATOR     = 

OBJECT_NAME    = KUIPER-00138
OBJECT_ID      = 2025-228T
CENTER_NAME    = EARTH
REF_FRAME      = TEME
TIME_SYSTEM    = UTC
MEAN_ELEMENT_THEORY = SGP/SGP4

EPOCH          = 2025-11-07T23:05:20.056416
MEAN_MOTION    = 15.34446507
ECCENTRICITY   = .000596
INCLINATION    = 51.8778
RA_OF_ASC_NODE = 188.2069
ARG_OF_PERICENTER = 247.1032
MEAN_ANOMALY   = 112.9325

EPHEMERIS_TYPE = 0
CLASSIFICATION_TYPE = U
NORAD_CAT_ID   = 65964
ELEMENT_SET_NO = 999
REV_AT_EPOCH   = 507
BSTAR          = .86812E-3
MEAN_MOTION_DOT = .29151E-3
MEAN_MOTION_DDOT = 0

CCSDS_OMM_VERS = 2.0
CREATION_DATE  = 
ORIGINATOR     = 

OBJECT_NAME    = KUIPER-00140
OBJECT_ID      = 2025-228U
CENTER_NAME    = EARTH
REF_FRAME      = TEME
TIME_SYSTEM    = UTC
MEAN_ELEMENT_THEORY = SGP/SGP4

EPOCH          = 2025-11-07T23:06:16.606080
MEAN_MOTION    = 15.34415979
ECCENTRICITY   = .000507
INCLINATION    = 51.8785
RA_OF_ASC_NODE = 188.2154
ARG_OF_PERICENTER = 246.8515
MEAN_ANOMALY   = 113.1936

EPHEMERIS_TYPE = 0
CLASSIFICATION_TYPE = U
NORAD_CAT_ID   = 65965
ELEMENT_SET_NO = 999
REV_AT_EPOCH   = 507
BSTAR          = .90332E-3
MEAN_MOTION_DOT = .30319E-3
MEAN_MOTION_DDOT = 0

CCSDS_OMM_VERS = 2.0
CREATION_DATE  = 
ORIGINATOR     = 

OBJECT_NAME    = KUIPER-00141
OBJECT_ID      = 2025-228V
CENTER_NAME    = EARTH
REF_FRAME      = TEME
TIME_SYSTEM    = UTC
MEAN_ELEMENT_THEORY = SGP/SGP4

EPOCH          = 2025-11-08T03:37:40.029600
MEAN_MOTION    = 15.34933920
ECCENTRICITY   = .0005624
INCLINATION    = 51.8771
RA_OF_ASC_NODE = 187.2246
ARG_OF_PERICENTER = 226.6630
MEAN_ANOMALY   = 133.3888

EPHEMERIS_TYPE = 0
CLASSIFICATION_TYPE = U
NORAD_CAT_ID   = 65966
ELEMENT_SET_NO = 999
REV_AT_EPOCH   = 510
BSTAR          = .62817E-3
MEAN_MOTION_DOT = .21297E-3
MEAN_MOTION_DDOT = 0

CCSDS_OMM_VERS = 2.0
CREATION_DATE  = 
ORIGINATOR     = 

OBJECT_NAME    = KUIPER-00146
OBJECT_ID      = 2025-228W
CENTER_NAME    = EARTH
REF_FRAME      = TEME
TIME_SYSTEM    = UTC
MEAN_ELEMENT_THEORY = SGP/SGP4

EPOCH          = 2025-11-08T03:38:27.345696
MEAN_MOTION    = 15.34922333
ECCENTRICITY   = .000553
INCLINATION    = 51.8785
RA_OF_ASC_NODE = 187.2364
ARG_OF_PERICENTER = 228.5446
MEAN_ANOMALY   = 131.5065

EPHEMERIS_TYPE = 0
CLASSIFICATION_TYPE = U
NORAD_CAT_ID   = 65967
ELEMENT_SET_NO = 999
REV_AT_EPOCH   = 510
BSTAR          = .11888E-2
MEAN_MOTION_DOT = .40734E-3
MEAN_MOTION_DDOT = 0

